{
  "norad_id": 60285,
  "name": "STARLINK-32122",
  "history": [
    {
      "epoch": "2026-03-28T21:58:53.937984",
      "apogee_km": 476.07999970697256,
      "perigee_km": 474.38721716668806,
      "latitude_deg": -53.15201379804891,
      "longitude_deg": -63.57340223994106,
      "semi_major_axis_km": 6853.3706084368305,
      "eccentricity": 0.0001235,
      "inclination_deg": 53.1608,
      "raan_deg": 323.1553,
      "arg_perigee_deg": 91.477,
      "mean_anomaly_deg": 268.6372,
      "mean_motion_rev_day": 15.30193791
    }
  ]
}